{
    "links": {
        "self": "http://www.neowsapp.com/rest/v1/neo/3826758?api_key=iIulBulltgU6a56xZRHN4H3l9WmuAYTsLGpBGhQ2"
    },
    "id": "3826758",
    "neo_reference_id": "3826758",
    "name": "(2018 PJ20)",
    "designation": "2018 PJ20",
    "nasa_jpl_url": "http://ssd.jpl.nasa.gov/sbdb.cgi?sstr=3826758",
    "absolute_magnitude_h": 27.1,
    "estimated_diameter": {
        "kilometers": {
            "estimated_diameter_min": 0.0101054342,
            "estimated_diameter_max": 0.0225964377
        },
        "meters": {
            "estimated_diameter_min": 10.1054341542,
            "estimated_diameter_max": 22.5964377109
        },
        "miles": {
            "estimated_diameter_min": 0.0062792237,
            "estimated_diameter_max": 0.0140407711
        },
        "feet": {
            "estimated_diameter_min": 33.1543125905,
            "estimated_diameter_max": 74.1352966996
        }
    },
    "is_potentially_hazardous_asteroid": false,
    "close_approach_data": [
        {
            "close_approach_date": "2018-08-03",
            "close_approach_date_full": "2018-Aug-03 16:01",
            "epoch_date_close_approach": 1533312060000,
            "relative_velocity": {
                "kilometers_per_second": "13.0571074731",
                "kilometers_per_hour": "47005.5869031776",
                "miles_per_hour": "29207.4437065884"
            },
            "miss_distance": {
                "astronomical": "0.0157056921",
                "lunar": "6.1095142269",
                "kilometers": "2349538.085035827",
                "miles": "1459935.2679433326"
            },
            "orbiting_body": "Earth"
        },
        {
            "close_approach_date": "2084-04-18",
            "close_approach_date_full": "2084-Apr-18 11:02",
            "epoch_date_close_approach": 3606894120000,
            "relative_velocity": {
                "kilometers_per_second": "15.7765469568",
                "kilometers_per_hour": "56795.5690444948",
                "miles_per_hour": "35290.5578876751"
            },
            "miss_distance": {
                "astronomical": "0.113013246",
                "lunar": "43.962152694",
                "kilometers": "16906540.88338602",
                "miles": "10505237.370606276"
            },
            "orbiting_body": "Earth"
        }
    ],
    "orbital_data": {
        "orbit_id": "4",
        "orbit_determination_date": "2019-07-18 07:28:23",
        "first_observation_date": "2018-08-07",
        "last_observation_date": "2018-08-18",
        "data_arc_in_days": 11,
        "observations_used": 16,
        "orbit_uncertainty": "8",
        "minimum_orbit_intersection": ".00162426",
        "jupiter_tisserand_invariant": "3.324",
        "epoch_osculation": "2458342.5",
        "eccentricity": ".6076604667711959",
        "semi_major_axis": "2.290585365545541",
        "inclination": "2.694424948077679",
        "ascending_node_longitude": "127.1908078716933",
        "orbital_period": "1266.246183582784",
        "perihelion_distance": ".8986871931388674",
        "perihelion_argument": "136.1024108530761",
        "aphelion_distance": "3.682483537952216",
        "perihelion_time": "2458299.234104442710",
        "mean_anomaly": "12.30070629437447",
        "mean_motion": ".284304904265454",
        "equinox": "J2000",
        "orbit_class": {
            "orbit_class_type": "APO",
            "orbit_class_description": "Near-Earth asteroid orbits which cross the Earth’s orbit similar to that of 1862 Apollo",
            "orbit_class_range": "a (semi-major axis) > 1.0 AU; q (perihelion) < 1.017 AU"
        }
    },
    "is_sentry_object": false
}